RADARSAT-2              
1 32382U 07061A   26197.28563481  .00000227  00000+0  10503-3 0  9996
2 32382  98.5777 203.8028 0001315  83.6460 276.4873 14.29984032970110
